satname,norad_id,inclination_deg,eccentricity,mean_motion_rev_per_day,perigee_km,apogee_km,l1,l2
STARLINK-1527,46048,53.1613,0.0001011,15.30202791,474.5138629573612,475.8996090607816,1 46048U 20055X   26098.37899095  .00003296  00000+0  12333-3 0  9993,2 46048  53.1613 336.0384 0001011  91.8970 268.2147 15.30202791313598
STARLINK-1540,46051,53.1604,0.0001155,15.30197429,474.43118292198596,476.01430902330594,1 46051U 20055AA  26097.94495139  .00002486  00000+0  96024-4 0  9990,2 46051  53.1604 337.9562 0001155  98.2940 261.8192 15.30197429313564
STARLINK-1541,46052,53.1603,0.0001551,15.35165082,459.36953795610043,461.4908615014565,1 46052U 20055AB  26098.58339120  .00311304  00000+0  86365-2 0  9996,2 46052  53.1603 334.9396 0001551 100.1999 283.6467 15.35165082  5800
STARLINK-1543,46053,53.1597,0.0001132,15.30196035,474.45110742578163,476.00270901460226,1 46053U 20055AC  26097.94075118  .00003466  00000+0  12911-3 0  9994,2 46053  53.1597 338.0430 0001132  96.2959 263.8171 15.30196035313556
STARLINK-1548,46054,53.1622,0.0001242,15.30215153,474.3186449582827,476.0210063737777,1 46054U 20055AD  26098.66657006  .00004114  00000+0  15088-3 0  9996,2 46054  53.1622 334.6761 0001242  85.3024 274.8119 15.30215153313668
STARLINK-1554,46055,53.1606,0.000118,15.30192756,474.42800068645647,476.04539687936995,1 46055U 20055AE  26097.94603956  .00000861  00000+0  41199-4 0  9990,2 46055  53.1606 338.1433 0001180  74.6464 285.4667 15.30192756313553
STARLINK-1564,46058,53.1621,0.0001288,15.30188797,474.36580370710726,476.1312358169971,1 46058U 20055AH  26097.94398000 -.00001301  00000+0 -31804-4 0  9998,2 46058  53.1621 338.4856 0001288  78.7660 281.3486 15.30188797313540
STARLINK-1570,46059,53.1616,0.0001535,15.30201442,474.1587749888722,476.26275275238004,1 46059U 20055AJ  26098.62655873  .00002733  00000+0  10438-3 0  9996,2 46059  53.1616 334.8580 0001535  80.2423 279.8751 15.30201442313617
STARLINK-1572,46060,53.1613,0.0001386,15.30185579,474.3082476993095,476.2080088288649,1 46060U 20055AK  26097.92498903  .00002336  00000+0  91018-4 0  9992,2 46060  53.1613 338.3229 0001386  72.9054 287.2099 15.30185579313516
STARLINK-1573,46061,53.1596,0.0001499,15.301931,474.2083510895254,476.2629922164879,1 46061U 20055AL  26098.34948927 -.00000771  00000+0 -13902-4 0  9995,2 46061  53.1596 336.0994 0001499  89.2791 270.8381 15.30193100313617
STARLINK-1577,46063,53.1611,0.0001203,15.30187818,474.4269802871304,476.07590554649687,1 46063U 20055AN  26098.37581841 -.00001279  00000+0 -31083-4 0  9992,2 46063  53.1611 335.9478 0001203  88.3279 271.7860 15.30187818313617
STARLINK-1583,46064,53.1589,0.0001224,15.30193073,474.3968994458701,476.0746050956259,1 46064U 20055AP  26097.95444250  .00002082  00000+0  82405-4 0  9993,2 46064  53.1589 337.9389 0001224 100.0473 260.0666 15.30193073313543
STARLINK-1536,46070,53.0811,0.0001279,15.15912152,517.3286904009674,519.0927761511402,1 46070U 20055AV  26098.58339120  .00067669  00000+0  34733-2 0  9990,2 46070  53.0811 322.0552 0001279  82.4114 347.3873 15.15912152  5737
STARLINK-1542,46073,53.0542,0.0001208,15.06400092,546.3746938998047,548.0478580432791,1 46073U 20055AY  26097.93537620  .00002038  00000+0  15565-3 0  9998,2 46073  53.0542 325.3300 0001208  90.8088 269.3040 15.06400092313717
STARLINK-1549,46074,53.0536,0.0001435,15.23467743,494.4040114971358,496.3767138502235,1 46074U 20055AZ  26098.58339120  .01654369  00000+0  61931-1 0  9993,2 46074  53.0536 321.8395 0001435 111.6318 184.4318 15.23467743  5275
STARLINK-1551,46075,53.1212,0.0001707,15.21765713,499.3403866041144,501.68875825094165,1 46075U 20055BA  26098.58339120  .01568492  00000+0  62057-1 0  9995,2 46075  53.1212 321.9945 0001707  78.7075  12.0396 15.21765713  5734
STARLINK-1552,46076,53.1222,4.36e-05,15.2204189,499.38257925190555,499.9823251081352,1 46076U 20055BB  26098.58339120  .01544636  00000+0  60701-1 0  9994,2 46076  53.1222 321.9798 0000436 162.5468 156.4744 15.22041890  5798
STARLINK-1559,46077,53.0253,0.0002566,15.3289554,465.42196121589313,468.9349771146681,1 46077U 20055BC  26098.52174914  .00053905  00000+0  16724-2 0  9997,2 46077  53.0253 294.7536 0002566 154.4865 205.6263 15.32895540314152
STARLINK-1566,46079,53.1235,0.0001927,15.22344648,497.44535249649834,500.0957126595531,1 46079U 20055BE  26098.58339120  .01561678  00000+0  60777-1 0  9995,2 46079  53.1235 321.9628 0001927 121.0999 107.6131 15.22344648  5685
STARLINK-1568,46080,53.0605,0.0004404,15.49007047,416.6358096333206,422.62328240705574,1 46080U 20055BF  26098.58540792  .00034525  00000+0  63252-3 0  9994,2 46080  53.0605 250.0476 0004404 230.9500 129.1116 15.49007047314820
STARLINK-1578,46082,53.084,0.0001664,15.17079332,513.526133700956,515.8200609013375,1 46082U 20055BH  26098.58339120  .00069160  00000+0  34328-2 0  9991,2 46082  53.0840 322.0352 0001664  86.4109  13.3478 15.17079332  5788
STARLINK-1579,46083,53.1175,0.0001155,15.21077353,501.7949704571447,503.38441832354874,1 46083U 20055BJ  26098.58339120  .01511281  00000+0  61218-1 0  9996,2 46083  53.1175 322.0092 0001155 133.9132 148.8696 15.21077353  5794
STARLINK-1585,46117,53.0197,0.000216,16.37618084,170.73154909573532,173.5612715289899,1 46117U 20057A   26098.98521490  .08429898  12298-4  81652-3 0  9995,2 46117  53.0197  91.0614 0002160 271.4875  88.5923 16.37618084311880
STARLINK-1593,46119,53.0368,0.0006368,15.88158733,303.18787895031255,311.7026365137608,1 46119U 20057C   26098.58339120  .00393977  00000+0  13480-2 0  9996,2 46119  53.0368 120.2392 0006368  36.3167 334.8339 15.88158733  5889
STARLINK-1621,46127,53.038,0.0006455,15.93433725,288.3762077516476,296.9882353666808,1 46127U 20057L   26098.58339120  .00291051  43595-4  80189-3 0  9997,2 46127  53.0380  92.7324 0006455  41.5547 321.1653 15.93433725  6003
STARLINK-1622,46128,53.021,0.0002046,15.7002671,357.4422184599089,360.19898150982317,1 46128U 20057M   26098.35525692  .00102185  00000+0  82687-3 0  9997,2 46128  53.0210  78.0868 0002046   6.3208 353.7834 15.70026710312011
STARLINK-1623,46129,53.046,0.0003722,15.59459369,386.7018833542188,391.7395044215491,1 46129U 20057N   26098.58339120  .00123986  00000+0  15200-2 0  9990,2 46129  53.0460 111.2743 0003722 347.8943  74.9384 15.59459369  5920
STARLINK-1624,46130,53.0405,0.0008574,15.78242789,329.66304915829096,341.17545541971504,1 46130U 20057P   26098.58339120  .00162964  00000+0  91491-3 0  9998,2 46130  53.0405  83.9355 0008574  70.5116 257.7737 15.78242789  5860
